[{"OBJECT_NAME":"SL-12 R/B(2)","OBJECT_ID":"2008-033D","EPOCH":"2026-03-15T00:02:04.675200","MEAN_MOTION":1.00275619,"ECCENTRICITY":0.00314768,"INCLINATION":10.3836,"RA_OF_ASC_NODE":41.9945,"ARG_OF_PERICENTER":335.5853,"MEAN_ANOMALY":214.83,"EPHEMERIS_TYPE":0,"CLASSIFICATION_TYPE":"U","NORAD_CAT_ID":33111,"ELEMENT_SET_NO":999,"REV_AT_EPOCH":6486,"BSTAR":0,"MEAN_MOTION_DOT":4.6e-7,"MEAN_MOTION_DDOT":0},{"OBJECT_NAME":"INTELSAT 25 (IS-25)","OBJECT_ID":"2008-034A","EPOCH":"2026-03-15T01:28:30.474048","MEAN_MOTION":1.00270237,"ECCENTRICITY":0.00032395,"INCLINATION":2.4631,"RA_OF_ASC_NODE":81.4725,"ARG_OF_PERICENTER":251.3174,"MEAN_ANOMALY":190.4936,"EPHEMERIS_TYPE":0,"CLASSIFICATION_TYPE":"U","NORAD_CAT_ID":33153,"ELEMENT_SET_NO":999,"REV_AT_EPOCH":6475,"BSTAR":0,"MEAN_MOTION_DOT":-2.24e-6,"MEAN_MOTION_DDOT":0},{"OBJECT_NAME":"ECHOSTAR 11","OBJECT_ID":"2008-035A","EPOCH":"2026-03-15T06:14:10.578624","MEAN_MOTION":1.0027209,"ECCENTRICITY":0.00025388,"INCLINATION":0.7603,"RA_OF_ASC_NODE":85.3116,"ARG_OF_PERICENTER":257.4268,"MEAN_ANOMALY":173.6655,"EPHEMERIS_TYPE":0,"CLASSIFICATION_TYPE":"U","NORAD_CAT_ID":33207,"ELEMENT_SET_NO":999,"REV_AT_EPOCH":5027,"BSTAR":0,"MEAN_MOTION_DOT":-5.7e-7,"MEAN_MOTION_DDOT":0},{"OBJECT_NAME":"SUPERBIRD-C2","OBJECT_ID":"2008-038A","EPOCH":"2026-03-15T00:31:20.812224","MEAN_MOTION":1.00274401,"ECCENTRICITY":0.00018241,"INCLINATION":2.1164,"RA_OF_ASC_NODE":82.4612,"ARG_OF_PERICENTER":358.52,"MEAN_ANOMALY":235.4829,"EPHEMERIS_TYPE":0,"CLASSIFICATION_TYPE":"U","NORAD_CAT_ID":33274,"ELEMENT_SET_NO":999,"REV_AT_EPOCH":10478,"BSTAR":0,"MEAN_MOTION_DOT":-3.06e-6,"MEAN_MOTION_DDOT":0},{"OBJECT_NAME":"INMARSAT 4-F3","OBJECT_ID":"2008-039A","EPOCH":"2026-03-14T23:26:49.643808","MEAN_MOTION":1.00271334,"ECCENTRICITY":0.00027736,"INCLINATION":4.2124,"RA_OF_ASC_NODE":31.2382,"ARG_OF_PERICENTER":335.255,"MEAN_ANOMALY":59.7942,"EPHEMERIS_TYPE":0,"CLASSIFICATION_TYPE":"U","NORAD_CAT_ID":33278,"ELEMENT_SET_NO":999,"REV_AT_EPOCH":4560,"BSTAR":0,"MEAN_MOTION_DOT":-1.38e-6,"MEAN_MOTION_DDOT":0},{"OBJECT_NAME":"NIMIQ 4","OBJECT_ID":"2008-044A","EPOCH":"2026-03-15T06:22:09.812640","MEAN_MOTION":1.00271114,"ECCENTRICITY":0.00023741,"INCLINATION":0.0234,"RA_OF_ASC_NODE":117.0056,"ARG_OF_PERICENTER":240.858,"MEAN_ANOMALY":188.532,"EPHEMERIS_TYPE":0,"CLASSIFICATION_TYPE":"U","NORAD_CAT_ID":33373,"ELEMENT_SET_NO":999,"REV_AT_EPOCH":6404,"BSTAR":0,"MEAN_MOTION_DOT":-2.21e-6,"MEAN_MOTION_DDOT":0},{"OBJECT_NAME":"GALAXY 19 (G-19)","OBJECT_ID":"2008-045A","EPOCH":"2026-03-15T02:52:29.919936","MEAN_MOTION":1.00271572,"ECCENTRICITY":0.00027857,"INCLINATION":0.0344,"RA_OF_ASC_NODE":251.8682,"ARG_OF_PERICENTER":114.7662,"MEAN_ANOMALY":112.2031,"EPHEMERIS_TYPE":0,"CLASSIFICATION_TYPE":"U","NORAD_CAT_ID":33376,"ELEMENT_SET_NO":999,"REV_AT_EPOCH":6396,"BSTAR":0,"MEAN_MOTION_DOT":-1.4e-6,"MEAN_MOTION_DDOT":0},{"OBJECT_NAME":"ASTRA 1M","OBJECT_ID":"2008-057A","EPOCH":"2026-03-15T06:42:38.858688","MEAN_MOTION":1.00273401,"ECCENTRICITY":0.00016133,"INCLINATION":0.0577,"RA_OF_ASC_NODE":69.3763,"ARG_OF_PERICENTER":3.9875,"MEAN_ANOMALY":219.3566,"EPHEMERIS_TYPE":0,"CLASSIFICATION_TYPE":"U","NORAD_CAT_ID":33436,"ELEMENT_SET_NO":999,"REV_AT_EPOCH":4479,"BSTAR":0,"MEAN_MOTION_DOT":1.19e-6,"MEAN_MOTION_DDOT":0},{"OBJECT_NAME":"FENGYUN 2D DEB","OBJECT_ID":"2006-053D","EPOCH":"2026-02-24T23:47:38.693184","MEAN_MOTION":1.00249682,"ECCENTRICITY":0.00379697,"INCLINATION":11.4621,"RA_OF_ASC_NODE":38.0946,"ARG_OF_PERICENTER":346.7068,"MEAN_ANOMALY":194.206,"EPHEMERIS_TYPE":0,"CLASSIFICATION_TYPE":"U","NORAD_CAT_ID":33458,"ELEMENT_SET_NO":999,"REV_AT_EPOCH":6425,"BSTAR":0,"MEAN_MOTION_DOT":-3.0e-7,"MEAN_MOTION_DDOT":0},{"OBJECT_NAME":"EUTELSAT HOTBIRD 13C","OBJECT_ID":"2008-065A","EPOCH":"2026-03-15T06:54:03.677184","MEAN_MOTION":1.00270387,"ECCENTRICITY":0.0003863,"INCLINATION":2.7075,"RA_OF_ASC_NODE":80.306,"ARG_OF_PERICENTER":287.3129,"MEAN_ANOMALY":218.4855,"EPHEMERIS_TYPE":0,"CLASSIFICATION_TYPE":"U","NORAD_CAT_ID":33459,"ELEMENT_SET_NO":999,"REV_AT_EPOCH":4640,"BSTAR":0,"MEAN_MOTION_DOT":-2.82e-6,"MEAN_MOTION_DDOT":0},{"OBJECT_NAME":"EXPRESS-AM44","OBJECT_ID":"2009-007A","EPOCH":"2026-03-15T06:42:22.874688","MEAN_MOTION":1.00272378,"ECCENTRICITY":0.00042048,"INCLINATION":3.2206,"RA_OF_ASC_NODE":79.5477,"ARG_OF_PERICENTER":276.2167,"MEAN_ANOMALY":266.7156,"EPHEMERIS_TYPE":0,"CLASSIFICATION_TYPE":"U","NORAD_CAT_ID":33595,"ELEMENT_SET_NO":999,"REV_AT_EPOCH":5134,"BSTAR":0,"MEAN_MOTION_DOT":-8.8e-7,"MEAN_MOTION_DDOT":0},{"OBJECT_NAME":"NSS-9","OBJECT_ID":"2009-008A","EPOCH":"2026-03-15T05:55:04.910304","MEAN_MOTION":1.00272934,"ECCENTRICITY":0.00020737,"INCLINATION":1.017,"RA_OF_ASC_NODE":83.5681,"ARG_OF_PERICENTER":268.1662,"MEAN_ANOMALY":92.9497,"EPHEMERIS_TYPE":0,"CLASSIFICATION_TYPE":"U","NORAD_CAT_ID":33749,"ELEMENT_SET_NO":999,"REV_AT_EPOCH":6257,"BSTAR":0,"MEAN_MOTION_DOT":7.1e-7,"MEAN_MOTION_DDOT":0},{"OBJECT_NAME":"TELSTAR 11N","OBJECT_ID":"2009-009A","EPOCH":"2026-03-15T05:42:06.473088","MEAN_MOTION":1.00273051,"ECCENTRICITY":0.00025367,"INCLINATION":0.018,"RA_OF_ASC_NODE":161.1032,"ARG_OF_PERICENTER":183.1177,"MEAN_ANOMALY":236.5825,"EPHEMERIS_TYPE":0,"CLASSIFICATION_TYPE":"U","NORAD_CAT_ID":34111,"ELEMENT_SET_NO":999,"REV_AT_EPOCH":4530,"BSTAR":0,"MEAN_MOTION_DOT":-2.51e-6,"MEAN_MOTION_DDOT":0},{"OBJECT_NAME":"RADUGA-1 8","OBJECT_ID":"2009-010A","EPOCH":"2026-03-15T00:02:04.698528","MEAN_MOTION":0.99816246,"ECCENTRICITY":0.00104544,"INCLINATION":11.932,"RA_OF_ASC_NODE":42.5872,"ARG_OF_PERICENTER":19.1444,"MEAN_ANOMALY":170.0667,"EPHEMERIS_TYPE":0,"CLASSIFICATION_TYPE":"U","NORAD_CAT_ID":34264,"ELEMENT_SET_NO":999,"REV_AT_EPOCH":6223,"BSTAR":0,"MEAN_MOTION_DOT":1.0e-6,"MEAN_MOTION_DDOT":0},{"OBJECT_NAME":"SL-12 R/B(2)","OBJECT_ID":"2009-010B","EPOCH":"2026-03-15T05:31:18.840288","MEAN_MOTION":1.00000713,"ECCENTRICITY":0.0003909,"INCLINATION":11.9257,"RA_OF_ASC_NODE":42.5254,"ARG_OF_PERICENTER":296.4815,"MEAN_ANOMALY":205.3259,"EPHEMERIS_TYPE":0,"CLASSIFICATION_TYPE":"U","NORAD_CAT_ID":34265,"ELEMENT_SET_NO":999,"REV_AT_EPOCH":6225,"BSTAR":0,"MEAN_MOTION_DOT":-2.41e-6,"MEAN_MOTION_DDOT":0},{"OBJECT_NAME":"WGS F2 (USA 204)","OBJECT_ID":"2009-017A","EPOCH":"2026-03-15T05:19:15.845952","MEAN_MOTION":1.00270458,"ECCENTRICITY":1.811e-5,"INCLINATION":0.0237,"RA_OF_ASC_NODE":156.5104,"ARG_OF_PERICENTER":309.2729,"MEAN_ANOMALY":204.3663,"EPHEMERIS_TYPE":0,"CLASSIFICATION_TYPE":"U","NORAD_CAT_ID":34713,"ELEMENT_SET_NO":999,"REV_AT_EPOCH":4467,"BSTAR":0,"MEAN_MOTION_DOT":0,"MEAN_MOTION_DDOT":0},{"OBJECT_NAME":"SES-7 (PROTOSTAR 2)","OBJECT_ID":"2009-027A","EPOCH":"2026-03-15T00:25:36.507360","MEAN_MOTION":1.00271225,"ECCENTRICITY":0.00015567,"INCLINATION":0.037,"RA_OF_ASC_NODE":79.2383,"ARG_OF_PERICENTER":240.4285,"MEAN_ANOMALY":327.6136,"EPHEMERIS_TYPE":0,"CLASSIFICATION_TYPE":"U","NORAD_CAT_ID":34941,"ELEMENT_SET_NO":999,"REV_AT_EPOCH":6168,"BSTAR":0,"MEAN_MOTION_DOT":-3.46e-6,"MEAN_MOTION_DDOT":0}]
